satname,norad_id,inclination_deg,eccentricity,mean_motion_rev_per_day,perigee_km,apogee_km,l1,l2
STARLINK-1159,45057,53.0558,0.0001357,15.06397086,546.2807179317333,548.1602599542312,1 45057U 20006P   25260.25017932  .00001669  00000+0  13093-3 0  9993,2 45057  53.0558 345.2199 0001357  86.0216 274.0929 15.06397086310328
STARLINK-1166,45060,53.0568,0.0001109,15.06390394,546.4729746811099,548.0090235213102,1 45060U 20006S   25260.26122812  .00001664  00000+0  13058-3 0  9998,2 45060  53.0568 345.1713 0001109  89.5611 270.5505 15.06390394310322
STARLINK-1169,45061,53.056,0.0001182,15.06392435,546.4161647306464,548.0533226108491,1 45061U 20006T   25260.26860141 -.00001104  00000+0 -55248-4 0  9992,2 45061  53.0560 345.1401 0001182  86.0127 274.0998 15.06392435310327
STARLINK-1171,45062,53.0567,0.0001283,15.06382752,546.3758920761802,548.1529500808292,1 45062U 20006U   25260.25386406  .00000992  00000+0  85491-4 0  9994,2 45062  53.0567 345.2009 0001283  84.1290 275.9845 15.06382752310324
STARLINK-1133,45064,53.0545,0.000125,15.06396648,546.3561615006311,548.0875012084698,1 45064U 20006W   25260.20040674  .00000611  00000+0  59879-4 0  9994,2 45064  53.0545 325.4400 0001250  86.3160 273.7972 15.06396648310596
STARLINK-1150,45067,53.042,0.000281,15.93855453,289.63128478819,293.3796238475161,1 45067U 20006Z   25260.25009259  .00319293  50561-4  86088-3 0  9998,2 45067  53.0420 273.4372 0002810   5.4607 106.1682 15.93855453  6018
STARLINK-1167,45071,53.0543,6.39e-05,15.06410342,546.7373336316969,547.6223891265809,1 45071U 20006AD  25259.89446279  .00004019  00000+0  28846-3 0  9991,2 45071  53.0543 326.8188 0000639  92.9805 267.1258 15.06410342310546
STARLINK-1168,45072,53.0539,0.0001059,15.0639178,546.5033540886925,547.9701482491901,1 45072U 20006AE  25260.16354728  .00000806  00000+0  72979-4 0  9998,2 45072  53.0539 325.6107 0001059 103.8100 256.3007 15.06391780310587
STARLINK-1172,45074,53.0559,0.0001274,15.06408372,546.3036129455595,548.0681852202451,1 45074U 20006AG  25259.51113285  .00001139  00000+0  95299-4 0  9998,2 45074  53.0559 328.5392 0001274  86.3219 273.7916 15.06408372310481
STARLINK-1153,45080,53.0536,0.0001223,15.06403188,546.3548182609911,548.0487561283389,1 45080U 20006AN  25259.88710288 -.00000475  00000+0 -13020-4 0  9997,2 45080  53.0536 326.8531 0001223  88.8892 271.2237 15.06403188310543
STARLINK-1151,45081,53.0533,0.0001159,15.06394698,546.4251580710816,548.0304576335411,1 45081U 20006AP  25260.20410496 -.00000162  00000+0  79968-5 0  9990,2 45081  53.0533 325.5016 0001159  78.0553 282.0565 15.06394698310592
STARLINK-1190,45083,53.0497,0.000801,15.72221831,347.15714392900827,357.9397019765793,1 45083U 20006AR  25259.16770193  .00104750  00000+0  77162-3 0  9997,2 45083  53.0497 304.7570 0008010  15.6901 344.4364 15.72221831310797
STARLINK-1173,45084,53.0455,0.0009554,15.80592276,322.3568744724789,335.17242214206544,1 45084U 20006AS  25260.25009259  .00140675  00000+0  71180-3 0  9998,2 45084  53.0455 263.5719 0009554 359.9985 112.0134 15.80592276  5887
STARLINK-1179,45085,53.0392,0.0004733,15.9244463,292.2855707910958,298.6027827330181,1 45085U 20006AT  25260.25009259  .00303147  45944-4  88023-3 0  9999,2 45085  53.0392 254.5475 0004733  17.2501 244.1581 15.92444630  6000
STARLINK-1185,45087,53.0569,0.0001252,15.06399301,546.3466463657569,548.0807541811064,1 45087U 20006AV  25258.85319728 -.00002737  00000+0 -16494-3 0  9994,2 45087  53.0569 311.4893 0001252  88.5182 271.5950 15.06399301310678
STARLINK-1183,45088,53.0534,0.0001136,15.06399613,546.4260243068702,547.9994637687159,1 45088U 20006AW  25259.87051452  .00000650  00000+0  62504-4 0  9999,2 45088  53.0534 306.9239 0001136  66.6595 293.4513 15.06399613310821
STARLINK-1176,45090,53.0492,0.0005392,15.78154793,332.04872572123895,339.2888939065415,1 45090U 20006AY  25260.25009259  .00174025  00000+0  98066-3 0  9993,2 45090  53.0492 261.2213 0005392 342.4235 321.5333 15.78154793  5939
STARLINK-1142,45093,53.0383,0.0006443,15.495028,413.8006688229816,422.55840231071306,1 45093U 20006BB  25259.72131464  .00069735  00000+0  12413-2 0  9992,2 45093  53.0383 256.3509 0006443  42.4631 317.6874 15.49502800311524
STARLINK-1146,45094,53.0455,0.0004649,15.93589976,289.1451054699055,295.3472277382152,1 45094U 20006BC  25260.25009259  .00350171  58600-4  95606-3 0  9996,2 45094  53.0455 255.6544 0004649   3.8959 210.0539 15.93589976  5900
STARLINK-1147,45095,53.0412,0.0009334,15.89610631,297.1371885684375,309.6102327631088,1 45095U 20006BD  25260.25009259  .00195964  24982-4  66024-3 0  9992,2 45095  53.0412 258.3791 0009334   6.8970 234.5201 15.89610631  6007
STARLINK-1152,45096,53.0482,0.0005011,15.2057139,500.6672658244406,507.5646597437426,1 45096U 20006BE  25259.48664224  .00040251  00000+0  18192-2 0  9995,2 45096  53.0482 295.8833 0005011  34.0907 326.0410 15.20571390310942
STARLINK-1184,45098,53.0535,0.0001005,15.06393879,546.5343185697584,547.9263174006728,1 45098U 20006BG  25260.15065080  .00000347  00000+0  42176-4 0  9991,2 45098  53.0535 305.6659 0001005  73.6399 286.4701 15.06393879310863
STARLINK-1193,45100,53.0544,0.0001203,15.06410631,546.345860134169,548.0120911579097,1 45100U 20006BJ  25260.14697295  .00004132  00000+0  29603-3 0  9998,2 45100  53.0544 305.6823 0001203  77.0038 283.1085 15.06410631310863
STARLINK-1143,45179,53.0563,0.0004851,15.32961998,463.66005936066995,470.30119248133815,1 45179U 20012B   25259.77761627  .00075290  00000+0  23194-2 0  9990,2 45179  53.0563  80.6387 0004851 147.2095 212.9208 15.32961998309007
STARLINK-1201,45182,53.0359,0.0003766,16.07663262,250.76395707892607,255.75872630989033,1 45182U 20012E   25260.50754596  .00613746  20048-3  74015-3 0  9995,2 45182  53.0359  27.9233 0003766 353.4692   6.6291 16.07663262309642
STARLINK-1202,45183,53.0545,0.0001301,15.06391214,546.337494543026,548.1394772444564,1 45183U 20012F   25259.87791223  .00002021  00000+0  15456-3 0  9996,2 45183  53.0545 106.8908 0001301  92.3847 267.7291 15.06391214308642
STARLINK-1216,45185,53.0538,0.0001459,15.06388726,546.2356979440783,548.2565247359671,1 45185U 20012H   25259.87053170 -.00001140  00000+0 -57691-4 0  9991,2 45185  53.0538 106.9240 0001459 100.0050 260.1103 15.06388726308589
STARLINK-1224,45186,53.0341,0.0004361,16.12267874,237.74276635213937,243.51565424075943,1 45186U 20012J   25260.49233872  .00829911  41094-3  74054-3 0  9996,2 45186  53.0341  48.9661 0004361 334.8312  25.2509 16.12267874309441
STARLINK-1225,45187,53.0532,0.0001275,15.06385977,546.3715493260661,548.137524167937,1 45187U 20012K   25259.88895127 -.00002703  00000+0 -16272-3 0  9995,2 45187  53.0532 106.8423 0001275  93.4119 266.7016 15.06385977308630
STARLINK-1230,45189,53.0537,0.000138,15.06392181,546.279820742734,548.191223558847,1 45189U 20012M   25259.89264407 -.00000736  00000+0 -30551-4 0  9990,2 45189  53.0537 106.8257 0001380  91.7732 268.3416 15.06392181305860
STARLINK-1234,45190,53.0558,0.000138,15.06392164,546.279872838546,548.1912756690399,1 45190U 20012N   25259.77837845 -.00000256  00000+0  17184-5 0  9995,2 45190  53.0558  67.3363 0001380  92.7863 267.3284 15.06392164309081
STARLINK-1240,45194,53.0375,0.0001743,15.99725328,274.0204999050129,276.3398462715513,1 45194U 20012S   25260.25009259  .00523257  13013-3  10184-2 0  9996,2 45194  53.0375  51.5863 0001743  22.9192 219.3222 15.99725328  6026
STARLINK-1244,45196,53.0357,0.0002209,16.04392095,260.80517655665517,263.738909271814,1 45196U 20012U   25259.70806657  .00511140  13270-3  75588-3 0  9996,2 45196  53.0357  53.7778 0002209 327.1427  32.9467 16.04392095309413
STARLINK-1269,45197,53.0544,0.0001449,15.06394248,546.2257014854304,548.2326726064357,1 45197U 20012V   25259.90370890  .00001113  00000+0  93598-4 0  9993,2 45197  53.0544 106.7771 0001449  90.6945 269.4210 15.06394248308613
STARLINK-1154,45198,53.0557,0.0001491,15.06395577,546.1925423382445,548.2576853205892,1 45198U 20012W   25259.82812638  .00000386  00000+0  44809-4 0  9998,2 45198  53.0557  87.1145 0001491  95.5064 264.6095 15.06395577308858
STARLINK-1199,45201,53.0548,0.0001429,15.06393083,546.2431222898012,548.2223929665306,1 45201U 20012Z   25259.83919549 -.00000985  00000+0 -47234-4 0  9995,2 45201  53.0548  87.0650 0001429  85.5657 274.5495 15.06393083308912
STARLINK-1206,45204,53.0387,0.0005675,16.08030378,248.4892513766299,256.0147428883756,1 45204U 20012AC  25260.58753637  .01812069  24714-2  22057-2 0  9994,2 45204  53.0387  30.6078 0005675 260.6321  99.4071 16.08030378309783
STARLINK-1208,45205,53.0381,8.99e-05,15.94903897,287.9828417060435,289.18151781456527,1 45205U 20012AD  25260.25009259  .00455253  94219-4  11579-2 0  9996,2 45205  53.0381  33.6083 0000899  90.6664 139.3491 15.94903897  6010
STARLINK-1209,45206,53.0551,0.0001317,15.06402396,546.2921471151412,548.1162819910551,1 45206U 20012AE  25259.78207050  .00000767  00000+0  70372-4 0  9996,2 45206  53.0551  67.3225 0001317  98.0493 262.0646 15.06402396308236
STARLINK-1210,45207,53.0289,0.0010473,15.46086811,421.05830123398937,435.31482657093966,1 45207U 20012AF  25260.00002315  .00095233  00000+0  18970-2 0  9997,2 45207  53.0289  40.3854 0010473 238.0758 244.5343 15.46086811  5818
STARLINK-1231,45212,53.0523,0.0003704,15.08635164,537.8069466799197,542.932176340687,1 45212U 20012AL  25259.84244172  .00023197  00000+0  14788-2 0  9995,2 45212  53.0523  86.6591 0003704 148.8753 211.2457 15.08635164308876
STARLINK-1271,45217,53.0549,0.0001562,15.06389369,546.1623960795869,548.325885147915,1 45217U 20012AR  25259.75810527 -.00002581  00000+0 -15445-3 0  9991,2 45217  53.0549  87.4282 0001562  92.9944 267.1224 15.06389369308903
STARLINK-1191,45222,53.0559,0.00013,15.06395169,546.3260670596974,548.1266615344139,1 45222U 20012AW  25259.76732081  .00000304  00000+0  39294-4 0  9994,2 45222  53.0559  67.3842 0001300  90.2517 269.8621 15.06395169309182
